CCSDS_OMM_VERS = 2.0
CREATION_DATE  = 
ORIGINATOR     = 

OBJECT_NAME    = ISS (ZARYA)
OBJECT_ID      = 1998-067A
CENTER_NAME    = EARTH
REF_FRAME      = TEME
TIME_SYSTEM    = UTC
MEAN_ELEMENT_THEORY = SGP/SGP4

EPOCH          = 2026-02-05T01:12:31.364064
MEAN_MOTION    = 15.48402345
ECCENTRICITY   = .00111254
INCLINATION    = 51.6315
RA_OF_ASC_NODE = 233.7051
ARG_OF_PERICENTER = 65.7526
MEAN_ANOMALY   = 294.4623

EPHEMERIS_TYPE = 0
CLASSIFICATION_TYPE = U
NORAD_CAT_ID   = 25544
ELEMENT_SET_NO = 999
REV_AT_EPOCH   = 55127
BSTAR          = .21868475E-3
MEAN_MOTION_DOT = .11388E-3
MEAN_MOTION_DDOT = 0

CCSDS_OMM_VERS = 2.0
CREATION_DATE  = 
ORIGINATOR     = 

OBJECT_NAME    = CSS (TIANHE)
OBJECT_ID      = 2021-035A
CENTER_NAME    = EARTH
REF_FRAME      = TEME
TIME_SYSTEM    = UTC
MEAN_ELEMENT_THEORY = SGP/SGP4

EPOCH          = 2026-02-05T04:37:07.288608
MEAN_MOTION    = 15.59205280
ECCENTRICITY   = .00057074
INCLINATION    = 41.4676
RA_OF_ASC_NODE = 45.6780
ARG_OF_PERICENTER = 3.1658
MEAN_ANOMALY   = 356.9216

EPHEMERIS_TYPE = 0
CLASSIFICATION_TYPE = U
NORAD_CAT_ID   = 48274
ELEMENT_SET_NO = 999
REV_AT_EPOCH   = 27253
BSTAR          = .23497078E-3
MEAN_MOTION_DOT = .18681E-3
MEAN_MOTION_DDOT = 0

CCSDS_OMM_VERS = 2.0
CREATION_DATE  = 
ORIGINATOR     = 

OBJECT_NAME    = ISS (NAUKA)
OBJECT_ID      = 2021-066A
CENTER_NAME    = EARTH
REF_FRAME      = TEME
TIME_SYSTEM    = UTC
MEAN_ELEMENT_THEORY = SGP/SGP4

EPOCH          = 2026-02-05T01:12:31.364064
MEAN_MOTION    = 15.48402345
ECCENTRICITY   = .00111254
INCLINATION    = 51.6315
RA_OF_ASC_NODE = 233.7051
ARG_OF_PERICENTER = 65.7526
MEAN_ANOMALY   = 294.4623

EPHEMERIS_TYPE = 0
CLASSIFICATION_TYPE = U
NORAD_CAT_ID   = 49044
ELEMENT_SET_NO = 999
REV_AT_EPOCH   = 23044
BSTAR          = .21868475E-3
MEAN_MOTION_DOT = .11388E-3
MEAN_MOTION_DDOT = 0

CCSDS_OMM_VERS = 2.0
CREATION_DATE  = 
ORIGINATOR     = 

OBJECT_NAME    = FREGAT DEB
OBJECT_ID      = 2011-037PF
CENTER_NAME    = EARTH
REF_FRAME      = TEME
TIME_SYSTEM    = UTC
MEAN_ELEMENT_THEORY = SGP/SGP4

EPOCH          = 2026-02-04T06:50:42.482688
MEAN_MOTION    = 12.37770110
ECCENTRICITY   = .092534
INCLINATION    = 51.6559
RA_OF_ASC_NODE = 40.6800
ARG_OF_PERICENTER = 342.7791
MEAN_ANOMALY   = 14.3520

EPHEMERIS_TYPE = 0
CLASSIFICATION_TYPE = U
NORAD_CAT_ID   = 49271
ELEMENT_SET_NO = 999
REV_AT_EPOCH   = 20855
BSTAR          = .76173E-1
MEAN_MOTION_DOT = .44732E-3
MEAN_MOTION_DDOT = 0

CCSDS_OMM_VERS = 2.0
CREATION_DATE  = 
ORIGINATOR     = 

OBJECT_NAME    = CSS (WENTIAN)
OBJECT_ID      = 2022-085A
CENTER_NAME    = EARTH
REF_FRAME      = TEME
TIME_SYSTEM    = UTC
MEAN_ELEMENT_THEORY = SGP/SGP4

EPOCH          = 2026-02-05T04:37:07.288608
MEAN_MOTION    = 15.59205280
ECCENTRICITY   = .00057074
INCLINATION    = 41.4676
RA_OF_ASC_NODE = 45.6780
ARG_OF_PERICENTER = 3.1658
MEAN_ANOMALY   = 356.9216

EPHEMERIS_TYPE = 0
CLASSIFICATION_TYPE = U
NORAD_CAT_ID   = 53239
ELEMENT_SET_NO = 999
REV_AT_EPOCH   = 17384
BSTAR          = .23497078E-3
MEAN_MOTION_DOT = .18681E-3
MEAN_MOTION_DDOT = 0

CCSDS_OMM_VERS = 2.0
CREATION_DATE  = 
ORIGINATOR     = 

OBJECT_NAME    = CSS (MENGTIAN)
OBJECT_ID      = 2022-143A
CENTER_NAME    = EARTH
REF_FRAME      = TEME
TIME_SYSTEM    = UTC
MEAN_ELEMENT_THEORY = SGP/SGP4

EPOCH          = 2026-02-05T04:37:07.288608
MEAN_MOTION    = 15.59205280
ECCENTRICITY   = .00057074
INCLINATION    = 41.4676
RA_OF_ASC_NODE = 45.6780
ARG_OF_PERICENTER = 3.1658
MEAN_ANOMALY   = 356.9216

EPHEMERIS_TYPE = 0
CLASSIFICATION_TYPE = U
NORAD_CAT_ID   = 54216
ELEMENT_SET_NO = 999
REV_AT_EPOCH   = 15864
BSTAR          = .23497078E-3
MEAN_MOTION_DOT = .18681E-3
MEAN_MOTION_DDOT = 0

CCSDS_OMM_VERS = 2.0
CREATION_DATE  = 
ORIGINATOR     = 

OBJECT_NAME    = PROGRESS-MS 31
OBJECT_ID      = 2025-146A
CENTER_NAME    = EARTH
REF_FRAME      = TEME
TIME_SYSTEM    = UTC
MEAN_ELEMENT_THEORY = SGP/SGP4

EPOCH          = 2026-02-05T01:12:31.364064
MEAN_MOTION    = 15.48402345
ECCENTRICITY   = .00111254
INCLINATION    = 51.6315
RA_OF_ASC_NODE = 233.7051
ARG_OF_PERICENTER = 65.7526
MEAN_ANOMALY   = 294.4623

EPHEMERIS_TYPE = 0
CLASSIFICATION_TYPE = U
NORAD_CAT_ID   = 64751
ELEMENT_SET_NO = 999
REV_AT_EPOCH   = 675
BSTAR          = .21868475E-3
MEAN_MOTION_DOT = .11388E-3
MEAN_MOTION_DDOT = 0

CCSDS_OMM_VERS = 2.0
CREATION_DATE  = 
ORIGINATOR     = 

OBJECT_NAME    = TIANZHOU-9
OBJECT_ID      = 2025-149A
CENTER_NAME    = EARTH
REF_FRAME      = TEME
TIME_SYSTEM    = UTC
MEAN_ELEMENT_THEORY = SGP/SGP4

EPOCH          = 2026-02-05T04:37:07.288608
MEAN_MOTION    = 15.59205280
ECCENTRICITY   = .00057074
INCLINATION    = 41.4676
RA_OF_ASC_NODE = 45.6780
ARG_OF_PERICENTER = 3.1658
MEAN_ANOMALY   = 356.9216

EPHEMERIS_TYPE = 0
CLASSIFICATION_TYPE = U
NORAD_CAT_ID   = 64786
ELEMENT_SET_NO = 999
REV_AT_EPOCH   = 25530
BSTAR          = .23497078E-3
MEAN_MOTION_DOT = .18681E-3
MEAN_MOTION_DDOT = 0

CCSDS_OMM_VERS = 2.0
CREATION_DATE  = 
ORIGINATOR     = 

OBJECT_NAME    = DRAGON CRS-33
OBJECT_ID      = 2025-186A
CENTER_NAME    = EARTH
REF_FRAME      = TEME
TIME_SYSTEM    = UTC
MEAN_ELEMENT_THEORY = SGP/SGP4

EPOCH          = 2026-02-05T01:12:31.364064
MEAN_MOTION    = 15.48402345
ECCENTRICITY   = .00111254
INCLINATION    = 51.6315
RA_OF_ASC_NODE = 233.7051
ARG_OF_PERICENTER = 65.7526
MEAN_ANOMALY   = 294.4623

EPHEMERIS_TYPE = 0
CLASSIFICATION_TYPE = U
NORAD_CAT_ID   = 65304
ELEMENT_SET_NO = 999
REV_AT_EPOCH   = 11
BSTAR          = .21868475E-3
MEAN_MOTION_DOT = .11388E-3
MEAN_MOTION_DDOT = 0

CCSDS_OMM_VERS = 2.0
CREATION_DATE  = 
ORIGINATOR     = 

OBJECT_NAME    = PROGRESS-MS 32
OBJECT_ID      = 2025-204A
CENTER_NAME    = EARTH
REF_FRAME      = TEME
TIME_SYSTEM    = UTC
MEAN_ELEMENT_THEORY = SGP/SGP4

EPOCH          = 2026-02-05T01:12:31.364064
MEAN_MOTION    = 15.48402345
ECCENTRICITY   = .00111254
INCLINATION    = 51.6315
RA_OF_ASC_NODE = 233.7051
ARG_OF_PERICENTER = 65.7526
MEAN_ANOMALY   = 294.4623

EPHEMERIS_TYPE = 0
CLASSIFICATION_TYPE = U
NORAD_CAT_ID   = 65586
ELEMENT_SET_NO = 999
REV_AT_EPOCH   = 27
BSTAR          = .21868475E-3
MEAN_MOTION_DOT = .11388E-3
MEAN_MOTION_DDOT = 0

CCSDS_OMM_VERS = 2.0
CREATION_DATE  = 
ORIGINATOR     = 

OBJECT_NAME    = CYGNUS NG-23
OBJECT_ID      = 2025-208A
CENTER_NAME    = EARTH
REF_FRAME      = TEME
TIME_SYSTEM    = UTC
MEAN_ELEMENT_THEORY = SGP/SGP4

EPOCH          = 2026-02-05T01:12:31.364064
MEAN_MOTION    = 15.48402345
ECCENTRICITY   = .00111254
INCLINATION    = 51.6315
RA_OF_ASC_NODE = 233.7051
ARG_OF_PERICENTER = 65.7526
MEAN_ANOMALY   = 294.4623

EPHEMERIS_TYPE = 0
CLASSIFICATION_TYPE = U
NORAD_CAT_ID   = 65616
ELEMENT_SET_NO = 999
REV_AT_EPOCH   = 22
BSTAR          = .21868475E-3
MEAN_MOTION_DOT = .11388E-3
MEAN_MOTION_DDOT = 0

CCSDS_OMM_VERS = 2.0
CREATION_DATE  = 
ORIGINATOR     = 

OBJECT_NAME    = 1998-067XK
OBJECT_ID      = 1998-067XK
CENTER_NAME    = EARTH
REF_FRAME      = TEME
TIME_SYSTEM    = UTC
MEAN_ELEMENT_THEORY = SGP/SGP4

EPOCH          = 2026-02-04T16:23:06.715104
MEAN_MOTION    = 15.82313285
ECCENTRICITY   = .00035246
INCLINATION    = 51.6223
RA_OF_ASC_NODE = 220.7082
ARG_OF_PERICENTER = 230.7997
MEAN_ANOMALY   = 129.2693

EPHEMERIS_TYPE = 0
CLASSIFICATION_TYPE = U
NORAD_CAT_ID   = 65731
ELEMENT_SET_NO = 999
REV_AT_EPOCH   = 2163
BSTAR          = .11141246E-2
MEAN_MOTION_DOT = .241544E-2
MEAN_MOTION_DDOT = 0

