ISS (ZARYA)             
1 25544U 98067A   26036.05036301  .00011388  00000+0  21868-3 0  9993
2 25544  51.6315 233.7051 0011125  65.7526 294.4623 15.48402345551271
CSS (TIANHE)            
1 48274U 21035A   26036.19244547  .00018681  00000+0  23497-3 0  9990
2 48274  41.4676  45.6780 0005707   3.1658 356.9216 15.59205280272535
ISS (NAUKA)             
1 49044U 21066A   26036.05036301  .00011388  00000+0  21868-3 0  9999
2 49044  51.6315 233.7051 0011125  65.7526 294.4623 15.48402345230445
FREGAT DEB              
1 49271U 11037PF  26035.28521392  .00044732  00000+0  76173-1 0  9997
2 49271  51.6559  40.6800 0925340 342.7791  14.3520 12.37770110208554
CSS (WENTIAN)           
1 53239U 22085A   26036.19244547  .00018681  00000+0  23497-3 0  9993
2 53239  41.4676  45.6780 0005707   3.1658 356.9216 15.59205280173846
CSS (MENGTIAN)          
1 54216U 22143A   26036.19244547  .00018681  00000+0  23497-3 0  9994
2 54216  41.4676  45.6780 0005707   3.1658 356.9216 15.59205280158643
PROGRESS-MS 31          
1 64751U 25146A   26036.05036301  .00011388  00000+0  21868-3 0  9994
2 64751  51.6315 233.7051 0011125  65.7526 294.4623 15.48402345  6752
TIANZHOU-9              
1 64786U 25149A   26036.19244547  .00018681  00000+0  23497-3 0  9996
2 64786  41.4676  45.6780 0005707   3.1658 356.9216 15.59205280255307
DRAGON CRS-33           
1 65304U 25186A   26036.05036301  .00011388  00000+0  21868-3 0  9993
2 65304  51.6315 233.7051 0011125  65.7526 294.4623 15.48402345   111
PROGRESS-MS 32          
1 65586U 25204A   26036.05036301  .00011388  00000+0  21868-3 0  9996
2 65586  51.6315 233.7051 0011125  65.7526 294.4623 15.48402345   270
CYGNUS NG-23            
1 65616U 25208A   26036.05036301  .00011388  00000+0  21868-3 0  9994
2 65616  51.6315 233.7051 0011125  65.7526 294.4623 15.48402345   229
1998-067XK              
1 65731U 98067XK  26035.68271661  .00241544  00000+0  11141-2 0  9994
2 65731  51.6223 220.7082 0003524 230.7997 129.2693 15.82313285 21637
